UNKNOWN                 
1 85238U          25351.07460461  .00000026  00000+0  56760-4 0  9995
2 85238  99.0626 280.1325 0063111 188.1519 184.7221 13.88343195611442
UNKNOWN                 
1 85246U          25352.95730075  .00001363  00000+0  50007-3 0  9995
2 85246  97.9858 355.8694 0222049 285.7616  71.9178 14.21524593623951
UNKNOWN                 
1 85373U          25353.05112559  .00001963  00000+0  13560-2 0  9997
2 85373 100.4279  30.0091 0051370 221.5178 168.9369 14.00023826613015
UNKNOWN                 
1 85418U          25344.09285013  .00000000  00000+0  00000+0 0  9990
2 85418   4.9976 224.9058 0001461 215.0738 301.8487 15.12847580    03
UNKNOWN                 
1 87014U          25347.88175147  .00002778  00000+0  42820-2 0  9993
2 87014 100.4914 312.2343 0048634 244.8250 135.0722 13.51870945591074
UNKNOWN                 
1 87029U          25349.87730996  .00001200  00000+0  75608-3 0  9999
2 87029  98.7564  25.0230 0081519 240.8485 118.4506 14.04498214593441
UNKNOWN                 
1 87042U          25352.93620681  .00000553  00000+0  35221-3 0  9991
2 87042  98.7134  35.9264 0043968  78.6211 281.9893 14.07118718554832
UNKNOWN                 
1 87051U          25350.09682456  .00001027  00000+0  37984-3 0  9999
2 87051  65.7281 246.3209 0714597 139.8866 225.7267 13.45859416589034
UNKNOWN                 
1 87054U          25352.40051594  .00002036  00000+0  11603-2 0  9992
2 87054 100.0931 232.5158 0013557 331.1339  28.9076 14.11086015617126
UNKNOWN                 
1 87071U          25353.73161111  .00001880  00000+0  71603-3 0  9998
2 87071  61.2204 251.0454 0476619 240.9790 114.2691 13.85658083603454
UNKNOWN                 
1 87129U          25349.18180662  .00000114  00000+0  11534-2 0  9993
2 87129 102.2622  80.1784 0029611  86.1787 274.2662 12.42817418546976
UNKNOWN                 
1 87159U          25351.45919852  .00001257  00000+0  14610-2 0  9997
2 87159  90.3478  69.5750 0105330 241.6008 117.4503 13.66075619557336
