CCSDS_OMM_VERS = 2.0
CREATION_DATE  = 
ORIGINATOR     = 

OBJECT_NAME    = UNKNOWN
OBJECT_ID      = 
CENTER_NAME    = EARTH
REF_FRAME      = TEME
TIME_SYSTEM    = UTC
MEAN_ELEMENT_THEORY = SGP/SGP4

EPOCH          = 2025-12-17T01:47:25.838304
MEAN_MOTION    = 13.88343195
ECCENTRICITY   = .0063111
INCLINATION    = 99.0626
RA_OF_ASC_NODE = 280.1325
ARG_OF_PERICENTER = 188.1519
MEAN_ANOMALY   = 184.7221

EPHEMERIS_TYPE = 0
CLASSIFICATION_TYPE = U
NORAD_CAT_ID   = 85238
ELEMENT_SET_NO = 999
REV_AT_EPOCH   = 61144
BSTAR          = .5676E-4
MEAN_MOTION_DOT = .26E-6
MEAN_MOTION_DDOT = 0

CCSDS_OMM_VERS = 2.0
CREATION_DATE  = 
ORIGINATOR     = 

OBJECT_NAME    = UNKNOWN
OBJECT_ID      = 
CENTER_NAME    = EARTH
REF_FRAME      = TEME
TIME_SYSTEM    = UTC
MEAN_ELEMENT_THEORY = SGP/SGP4

EPOCH          = 2025-12-18T22:58:30.784800
MEAN_MOTION    = 14.21524593
ECCENTRICITY   = .0222049
INCLINATION    = 97.9858
RA_OF_ASC_NODE = 355.8694
ARG_OF_PERICENTER = 285.7616
MEAN_ANOMALY   = 71.9178

EPHEMERIS_TYPE = 0
CLASSIFICATION_TYPE = U
NORAD_CAT_ID   = 85246
ELEMENT_SET_NO = 999
REV_AT_EPOCH   = 62395
BSTAR          = .50007E-3
MEAN_MOTION_DOT = .1363E-4
MEAN_MOTION_DDOT = 0

CCSDS_OMM_VERS = 2.0
CREATION_DATE  = 
ORIGINATOR     = 

OBJECT_NAME    = UNKNOWN
OBJECT_ID      = 
CENTER_NAME    = EARTH
REF_FRAME      = TEME
TIME_SYSTEM    = UTC
MEAN_ELEMENT_THEORY = SGP/SGP4

EPOCH          = 2025-12-19T01:13:37.250976
MEAN_MOTION    = 14.00023826
ECCENTRICITY   = .005137
INCLINATION    = 100.4279
RA_OF_ASC_NODE = 30.0091
ARG_OF_PERICENTER = 221.5178
MEAN_ANOMALY   = 168.9369

EPHEMERIS_TYPE = 0
CLASSIFICATION_TYPE = U
NORAD_CAT_ID   = 85373
ELEMENT_SET_NO = 999
REV_AT_EPOCH   = 61301
BSTAR          = .1356E-2
MEAN_MOTION_DOT = .1963E-4
MEAN_MOTION_DDOT = 0

CCSDS_OMM_VERS = 2.0
CREATION_DATE  = 
ORIGINATOR     = 

OBJECT_NAME    = UNKNOWN
OBJECT_ID      = 
CENTER_NAME    = EARTH
REF_FRAME      = TEME
TIME_SYSTEM    = UTC
MEAN_ELEMENT_THEORY = SGP/SGP4

EPOCH          = 2025-12-10T02:13:42.251232
MEAN_MOTION    = 15.12847580
ECCENTRICITY   = .0001461
INCLINATION    = 4.9976
RA_OF_ASC_NODE = 224.9058
ARG_OF_PERICENTER = 215.0738
MEAN_ANOMALY   = 301.8487

EPHEMERIS_TYPE = 0
CLASSIFICATION_TYPE = U
NORAD_CAT_ID   = 85418
ELEMENT_SET_NO = 999
REV_AT_EPOCH   = 0
BSTAR          = 0
MEAN_MOTION_DOT = 0
MEAN_MOTION_DDOT = 0

CCSDS_OMM_VERS = 2.0
CREATION_DATE  = 
ORIGINATOR     = 

OBJECT_NAME    = UNKNOWN
OBJECT_ID      = 
CENTER_NAME    = EARTH
REF_FRAME      = TEME
TIME_SYSTEM    = UTC
MEAN_ELEMENT_THEORY = SGP/SGP4

EPOCH          = 2025-12-13T21:09:43.327008
MEAN_MOTION    = 13.51870945
ECCENTRICITY   = .0048634
INCLINATION    = 100.4914
RA_OF_ASC_NODE = 312.2343
ARG_OF_PERICENTER = 244.8250
MEAN_ANOMALY   = 135.0722

EPHEMERIS_TYPE = 0
CLASSIFICATION_TYPE = U
NORAD_CAT_ID   = 87014
ELEMENT_SET_NO = 999
REV_AT_EPOCH   = 59107
BSTAR          = .4282E-2
MEAN_MOTION_DOT = .2778E-4
MEAN_MOTION_DDOT = 0

CCSDS_OMM_VERS = 2.0
CREATION_DATE  = 
ORIGINATOR     = 

OBJECT_NAME    = UNKNOWN
OBJECT_ID      = 
CENTER_NAME    = EARTH
REF_FRAME      = TEME
TIME_SYSTEM    = UTC
MEAN_ELEMENT_THEORY = SGP/SGP4

EPOCH          = 2025-12-15T21:03:19.580544
MEAN_MOTION    = 14.04498214
ECCENTRICITY   = .0081519
INCLINATION    = 98.7564
RA_OF_ASC_NODE = 25.0230
ARG_OF_PERICENTER = 240.8485
MEAN_ANOMALY   = 118.4506

EPHEMERIS_TYPE = 0
CLASSIFICATION_TYPE = U
NORAD_CAT_ID   = 87029
ELEMENT_SET_NO = 999
REV_AT_EPOCH   = 59344
BSTAR          = .75608E-3
MEAN_MOTION_DOT = .12E-4
MEAN_MOTION_DDOT = 0

CCSDS_OMM_VERS = 2.0
CREATION_DATE  = 
ORIGINATOR     = 

OBJECT_NAME    = UNKNOWN
OBJECT_ID      = 
CENTER_NAME    = EARTH
REF_FRAME      = TEME
TIME_SYSTEM    = UTC
MEAN_ELEMENT_THEORY = SGP/SGP4

EPOCH          = 2025-12-18T22:28:08.268384
MEAN_MOTION    = 14.07118718
ECCENTRICITY   = .0043968
INCLINATION    = 98.7134
RA_OF_ASC_NODE = 35.9264
ARG_OF_PERICENTER = 78.6211
MEAN_ANOMALY   = 281.9893

EPHEMERIS_TYPE = 0
CLASSIFICATION_TYPE = U
NORAD_CAT_ID   = 87042
ELEMENT_SET_NO = 999
REV_AT_EPOCH   = 55483
BSTAR          = .35221E-3
MEAN_MOTION_DOT = .553E-5
MEAN_MOTION_DDOT = 0

CCSDS_OMM_VERS = 2.0
CREATION_DATE  = 
ORIGINATOR     = 

OBJECT_NAME    = UNKNOWN
OBJECT_ID      = 
CENTER_NAME    = EARTH
REF_FRAME      = TEME
TIME_SYSTEM    = UTC
MEAN_ELEMENT_THEORY = SGP/SGP4

EPOCH          = 2025-12-16T02:19:25.641984
MEAN_MOTION    = 13.45859416
ECCENTRICITY   = .0714597
INCLINATION    = 65.7281
RA_OF_ASC_NODE = 246.3209
ARG_OF_PERICENTER = 139.8866
MEAN_ANOMALY   = 225.7267

EPHEMERIS_TYPE = 0
CLASSIFICATION_TYPE = U
NORAD_CAT_ID   = 87051
ELEMENT_SET_NO = 999
REV_AT_EPOCH   = 58903
BSTAR          = .37984E-3
MEAN_MOTION_DOT = .1027E-4
MEAN_MOTION_DDOT = 0

CCSDS_OMM_VERS = 2.0
CREATION_DATE  = 
ORIGINATOR     = 

OBJECT_NAME    = UNKNOWN
OBJECT_ID      = 
CENTER_NAME    = EARTH
REF_FRAME      = TEME
TIME_SYSTEM    = UTC
MEAN_ELEMENT_THEORY = SGP/SGP4

EPOCH          = 2025-12-18T09:36:44.577216
MEAN_MOTION    = 14.11086015
ECCENTRICITY   = .0013557
INCLINATION    = 100.0931
RA_OF_ASC_NODE = 232.5158
ARG_OF_PERICENTER = 331.1339
MEAN_ANOMALY   = 28.9076

EPHEMERIS_TYPE = 0
CLASSIFICATION_TYPE = U
NORAD_CAT_ID   = 87054
ELEMENT_SET_NO = 999
REV_AT_EPOCH   = 61712
BSTAR          = .11603E-2
MEAN_MOTION_DOT = .2036E-4
MEAN_MOTION_DDOT = 0

CCSDS_OMM_VERS = 2.0
CREATION_DATE  = 
ORIGINATOR     = 

OBJECT_NAME    = UNKNOWN
OBJECT_ID      = 
CENTER_NAME    = EARTH
REF_FRAME      = TEME
TIME_SYSTEM    = UTC
MEAN_ELEMENT_THEORY = SGP/SGP4

EPOCH          = 2025-12-19T17:33:31.199904
MEAN_MOTION    = 13.85658083
ECCENTRICITY   = .0476619
INCLINATION    = 61.2204
RA_OF_ASC_NODE = 251.0454
ARG_OF_PERICENTER = 240.9790
MEAN_ANOMALY   = 114.2691

EPHEMERIS_TYPE = 0
CLASSIFICATION_TYPE = U
NORAD_CAT_ID   = 87071
ELEMENT_SET_NO = 999
REV_AT_EPOCH   = 60345
BSTAR          = .71603E-3
MEAN_MOTION_DOT = .188E-4
MEAN_MOTION_DDOT = 0

CCSDS_OMM_VERS = 2.0
CREATION_DATE  = 
ORIGINATOR     = 

OBJECT_NAME    = UNKNOWN
OBJECT_ID      = 
CENTER_NAME    = EARTH
REF_FRAME      = TEME
TIME_SYSTEM    = UTC
MEAN_ELEMENT_THEORY = SGP/SGP4

EPOCH          = 2025-12-15T04:21:48.091968
MEAN_MOTION    = 12.42817418
ECCENTRICITY   = .0029611
INCLINATION    = 102.2622
RA_OF_ASC_NODE = 80.1784
ARG_OF_PERICENTER = 86.1787
MEAN_ANOMALY   = 274.2662

EPHEMERIS_TYPE = 0
CLASSIFICATION_TYPE = U
NORAD_CAT_ID   = 87129
ELEMENT_SET_NO = 999
REV_AT_EPOCH   = 54697
BSTAR          = .11534E-2
MEAN_MOTION_DOT = .114E-5
MEAN_MOTION_DDOT = 0

CCSDS_OMM_VERS = 2.0
CREATION_DATE  = 
ORIGINATOR     = 

OBJECT_NAME    = UNKNOWN
OBJECT_ID      = 
CENTER_NAME    = EARTH
REF_FRAME      = TEME
TIME_SYSTEM    = UTC
MEAN_ELEMENT_THEORY = SGP/SGP4

EPOCH          = 2025-12-17T11:01:14.752128
MEAN_MOTION    = 13.66075619
ECCENTRICITY   = .010533
INCLINATION    = 90.3478
RA_OF_ASC_NODE = 69.5750
ARG_OF_PERICENTER = 241.6008
MEAN_ANOMALY   = 117.4503

EPHEMERIS_TYPE = 0
CLASSIFICATION_TYPE = U
NORAD_CAT_ID   = 87159
ELEMENT_SET_NO = 999
REV_AT_EPOCH   = 55733
BSTAR          = .1461E-2
MEAN_MOTION_DOT = .1257E-4
MEAN_MOTION_DDOT = 0

